[{"OBJECT_NAME":"STARLINK-35827","OBJECT_ID":"2025-254T","EPOCH":"2026-03-09T17:41:21.264288","MEAN_MOTION":15.30204167,"ECCENTRICITY":9.109e-5,"INCLINATION":53.1579,"RA_OF_ASC_NODE":232.1795,"ARG_OF_PERICENTER":69.894,"MEAN_ANOMALY":290.2159,"EPHEMERIS_TYPE":0,"CLASSIFICATION_TYPE":"U","NORAD_CAT_ID":66365,"ELEMENT_SET_NO":999,"REV_AT_EPOCH":1898,"BSTAR":0.0015561682,"MEAN_MOTION_DOT":0.00046022,"MEAN_MOTION_DDOT":0},{"OBJECT_NAME":"KUIPER-00222","OBJECT_ID":"2026-030U","EPOCH":"2026-03-09T16:13:57.726048","MEAN_MOTION":15.32445377,"ECCENTRICITY":0.00128002,"INCLINATION":51.8817,"RA_OF_ASC_NODE":219.7147,"ARG_OF_PERICENTER":40.1845,"MEAN_ANOMALY":320.0084,"EPHEMERIS_TYPE":0,"CLASSIFICATION_TYPE":"U","NORAD_CAT_ID":67782,"ELEMENT_SET_NO":999,"REV_AT_EPOCH":508,"BSTAR":0.0017317201,"MEAN_MOTION_DOT":0.00055223,"MEAN_MOTION_DDOT":0}]
