STARLINK-35827          
1 66365U 25254T   26068.73705167  .00046022  00000+0  15562-2 0  9996
2 66365  53.1579 232.1795 0000911  69.8940 290.2159 15.30204167 18987
KUIPER-00222            
1 67782U 26030U   26068.67636257  .00055223  00000+0  17317-2 0  9992
2 67782  51.8817 219.7147 0012800  40.1845 320.0084 15.32445377  5087
